ISS (ZARYA)             
1 25544U 98067A   26192.31485778  .00005525  00000+0  10843-3 0  9998
2 25544  51.6302 180.6822 0006688 282.4935  77.5305 15.48978902575497
OSCAR 7 (AO-7)          
1 07530U 74089B   26192.65227918 -.00000028  00000+0  11287-3 0  9995
2 07530 101.9904 206.1538 0012661  84.9028  27.9241 12.53698483363582
PHASE 3B (AO-10)        
1 14129U 83058B   26190.70523784  .00000106  00000+0  00000+0 0  9990
2 14129  25.9319 215.8523 6003352 121.8543 310.3469  2.05870648295953
UOSAT 2 (UO-11)         
1 14781U 84021B   26192.78688212  .00000834  00000+0  90293-4 0  9999
2 14781  97.8073 158.0896 0009187 100.8610 259.3643 14.90843828260798
LUSAT (LO-19)           
1 20442U 90005G   26192.60095825  .00000048  00000+0  33960-4 0  9997
2 20442  98.8847 215.0786 0012413 131.2116 229.0140 14.34130085905891
EYESAT A (AO-27)        
1 22825U 93061C   26192.75285488  .00000029  00000+0  28149-4 0  9993
2 22825  98.6869 260.1561 0008945  35.3967 324.7808 14.30948497710512
ITAMSAT (IO-26)         
1 22826U 93061D   26192.72493457  .00000027  00000+0  27151-4 0  9998
2 22826  98.6818 260.0482 0009180  19.2256 340.9271 14.31376071710824
RADIO ROSTO (RS15)      
1 23439U 94085A   26192.59416968 -.00000028  00000+0  41173-3 0  9994
2 23439  64.8162 263.7448 0156777 359.3709   0.6996 11.27583508298653
JAS-2 (FO-29)           
1 24278U 96046B   26192.56115524  .00000019  00000+0  53705-4 0  9990
2 24278  98.5222  38.0921 0350511  33.3553 328.9149 13.53275331476469
TECHSAT 1B (GO-32)      
1 25397U 98043D   26192.57915720  .00000017  00000+0  27605-4 0  9997
2 25397  99.0082 185.9544 0002088 120.3432 239.7952 14.24432894454804
PCSAT (NO-44)           
1 26931U 01043C   26192.60513081  .00000049  00000+0  49214-4 0  9999
2 26931  67.0491 181.1150 0005956 266.3338  93.7083 14.31964137293949
SAUDISAT 1C (SO-50)     
1 27607U 02058C   26192.76768468  .00000395  00000+0  64587-4 0  9999
2 27607  64.5517  52.9312 0074622 257.9067 101.3671 14.83094566268103
CUTE-1 (CO-55)          
1 27844U 03031E   26192.55360871  .00000156  00000+0  86389-4 0  9996
2 27844  98.6741 200.8063 0010749 111.9802 248.2521 14.24350085195140
CUBESAT XI-IV (CO-57)   
1 27848U 03031J   26192.55431067  .00000130  00000+0  76240-4 0  9993
2 27848  98.6772 200.4999 0010408 128.9651 231.2457 14.23633286194846
MOZHAETS 4 (RS22)       
1 27939U 03042A   26192.80646036  .00000593  00000+0  99511-4 0  9997
2 27939  98.3478  17.8625 0010936 184.0557 301.2910 14.73511019219177
CUBESAT XI-V            
1 28895U 05043F   26192.38715503  .00000804  00000+0  13420-3 0  9990
2 28895  98.3011 348.5214 0015131 126.3821 233.8784 14.72696464105311
CUTE-1.7+APD II (CO-65) 
1 32785U 08021C   26192.70815016  .00003141  00000+0  19914-3 0  9999
2 32785  97.8285 174.6422 0007318 313.6866  46.3755 15.09679513988892
SEEDS II (CO-66)        
1 32791U 08021J   26192.54516377  .00010960  00000+0  34002-3 0  9998
2 32791  97.7522 191.6211 0002685 165.1600 194.9721 15.33584480991022
YUBILEINY (RS30)        
1 32953U 08025A   26192.80523020  .00000055  00000+0  32245-3 0  9995
2 32953  82.5055 340.1254 0018559 256.8371 103.0638 12.43180718822758
KKS-1 (KISEKI)          
1 33499U 09002H   26192.74633171  .00000671  00000+0  89022-4 0  9999
2 33499  98.1178 115.5777 0007137 200.8182 159.2741 14.83184222939832
SWISSCUBE               
1 35932U 09051B   26192.73013467  .00000501  00000+0  10850-3 0  9990
2 35932  98.4013 101.0441 0007681 128.3881 231.8011 14.62526839892745
BEESAT-1                
1 35933U 09051C   26192.68394636  .00000417  00000+0  93456-4 0  9995
2 35933  98.3940 100.5811 0005925 139.0777 221.0870 14.61758535892766
ITUPSAT1                
1 35935U 09051E   26192.69631319  .00000384  00000+0  89239-4 0  9997
2 35935  98.4024  99.7593 0007836 153.2457 206.9149 14.60475709892314
XIWANG-1 (HOPE-1)       
1 36122U 09072B   26192.79159749 -.00000378  00000+0 -87394-3 0  9996
2 36122 100.4029 146.2315 0007430 172.3411 187.7817 13.16438082796240
O/OREOS (USA 219)       
1 37224U 10062C   26192.63923665  .00001201  00000+0  11890-3 0  9992
2 37224  71.9695  24.9452 0013771  12.0791 348.0707 14.93843212120292
JUGNU                   
1 37839U 11058B   26192.23374851  .00000361  00000+0  48953-4 0  9990
2 37839  19.9591 162.3323 0018442 342.6467 134.7204 14.13782829762435
SRMSAT                  
1 37841U 11058D   26192.32393388  .00000351  00000+0  46525-4 0  9991
2 37841  19.9716 273.3792 0011857 108.9537 302.7584 14.11580564761239
STRAND-1                
1 39090U 13009E   26192.49314170  .00000156  00000+0  66857-4 0  9990
2 39090  98.3931  12.1305 0009209 151.3099 208.8597 14.37177517700555
ZACUBE-1 (TSHEPISOSAT)  
1 39417U 13066B   26192.20230991  .00001491  00000+0  11848-3 0  9995
2 39417  97.8013 154.6585 0043796 168.0001 192.2277 15.01317932684339
GOMX-1                  
1 39430U 13066Q   26192.76678233  .00000981  00000+0  15345-3 0  9995
2 39430  97.6478  31.6786 0128613 359.2365   0.8625 14.69537985673528
