OBJECT_NAME,OBJECT_ID,EPOCH,MEAN_MOTION,ECCENTRICITY,INCLINATION,RA_OF_ASC_NODE,ARG_OF_PERICENTER,MEAN_ANOMALY,EPHEMERIS_TYPE,CLASSIFICATION_TYPE,NORAD_CAT_ID,ELEMENT_SET_NO,REV_AT_EPOCH,BSTAR,MEAN_MOTION_DOT,MEAN_MOTION_DDOT
OSCAR 7 (AO-7),1974-089B,2026-07-11T15:39:16.921152,12.53698483,.00126617,101.9904,206.1538,84.9028,27.9241,0,U,7530,999,36358,.11287365E-3,-.28E-6,0
PHASE 3B (AO-10),1983-058B,2026-07-09T16:55:32.549376,2.05870648,.60033527,25.9319,215.8523,121.8543,310.3469,0,U,14129,999,29595,0,.106E-5,0
UOSAT 2 (UO-11),1984-021B,2026-07-11T18:53:06.615168,14.90843828,.00091879,97.8073,158.0896,100.8610,259.3643,0,U,14781,999,26079,.90293227E-4,.834E-5,0
LUSAT (LO-19),1990-005G,2026-07-11T14:25:22.792800,14.34130085,.00124139,98.8847,215.0786,131.2116,229.0140,0,U,20442,999,90589,.33959512E-4,.48E-6,0
EYESAT A (AO-27),1993-061C,2026-07-11T18:04:06.661632,14.30948497,.00089457,98.6869,260.1561,35.3967,324.7808,0,U,22825,999,71051,.28148853E-4,.29E-6,0
ITAMSAT (IO-26),1993-061D,2026-07-11T17:23:54.346848,14.31376071,.000918,98.6818,260.0482,19.2256,340.9271,0,U,22826,999,71082,.27151127E-4,.27E-6,0
RADIO ROSTO (RS15),1994-085A,2026-07-11T14:15:36.260352,11.27583508,.01567773,64.8162,263.7448,359.3709,0.6996,0,U,23439,999,29865,.41173189E-3,-.28E-6,0
JAS-2 (FO-29),1996-046B,2026-07-11T13:28:03.812736,13.53275331,.03505118,98.5222,38.0921,33.3553,328.9149,0,U,24278,999,47646,.53704958E-4,.19E-6,0
TECHSAT 1B (GO-32),1998-043D,2026-07-11T13:53:59.182080,14.24432894,.00020883,99.0082,185.9544,120.3432,239.7952,0,U,25397,999,45480,.2760548E-4,.17E-6,0
ISS (ZARYA),1998-067A,2026-07-11T07:33:23.712192,15.48978902,.00066885,51.6302,180.6822,282.4935,77.5305,0,U,25544,999,57549,.10843416E-3,.5525E-4,0
PCSAT (NO-44),2001-043C,2026-07-11T14:31:23.301984,14.31964137,.00059565,67.0491,181.1150,266.3338,93.7083,0,U,26931,999,29394,.49213894E-4,.49E-6,0
SAUDISAT 1C (SO-50),2002-058C,2026-07-11T18:25:27.956352,14.83094566,.00746229,64.5517,52.9312,257.9067,101.3671,0,U,27607,999,26810,.64587119E-4,.395E-5,0
CUTE-1 (CO-55),2003-031E,2026-07-11T13:17:11.792544,14.24350085,.0010749,98.6741,200.8063,111.9802,248.2521,0,U,27844,999,19514,.86388914E-4,.156E-5,0
CUBESAT XI-IV (CO-57),2003-031J,2026-07-11T13:18:12.441888,14.23633286,.0010408,98.6772,200.4999,128.9651,231.2457,0,U,27848,999,19484,.76240362E-4,.13E-5,0
MOZHAETS 4 (RS22),2003-042A,2026-07-11T19:21:18.175104,14.73511019,.00109361,98.3478,17.8625,184.0557,301.2910,0,U,27939,999,21917,.99511267E-4,.593E-5,0
CUBESAT XI-V,2005-043F,2026-07-11T09:17:30.194592,14.72696464,.00151315,98.3011,348.5214,126.3821,233.8784,0,U,28895,999,10531,.13420163E-3,.804E-5,0
CUTE-1.7+APD II (CO-65),2008-021C,2026-07-11T16:59:44.173824,15.09679513,.00073188,97.8285,174.6422,313.6866,46.3755,0,U,32785,999,98889,.19913996E-3,.3141E-4,0
SEEDS II (CO-66),2008-021J,2026-07-11T13:05:02.149728,15.33584480,.00026852,97.7522,191.6211,165.1600,194.9721,0,U,32791,999,99102,.34002086E-3,.1096E-3,0
YUBILEINY (RS30),2008-025A,2026-07-11T19:19:31.889280,12.43180718,.00185597,82.5055,340.1254,256.8371,103.0638,0,U,32953,999,82275,.32244981E-3,.55E-6,0
KKS-1 (KISEKI),2009-002H,2026-07-11T17:54:43.059744,14.83184222,.00071376,98.1178,115.5777,200.8182,159.2741,0,U,33499,999,93983,.89021619E-4,.671E-5,0
SWISSCUBE,2009-051B,2026-07-11T17:31:23.635488,14.62526839,.00076812,98.4013,101.0441,128.3881,231.8011,0,U,35932,999,89274,.10850352E-3,.501E-5,0
BEESAT-1,2009-051C,2026-07-11T16:24:52.965504,14.61758535,.00059254,98.3940,100.5811,139.0777,221.0870,0,U,35933,999,89276,.93456424E-4,.417E-5,0
ITUPSAT1,2009-051E,2026-07-11T16:42:41.459616,14.60475709,.00078361,98.4024,99.7593,153.2457,206.9149,0,U,35935,999,89231,.89238519E-4,.384E-5,0
XIWANG-1 (HOPE-1),2009-072B,2026-07-11T18:59:54.023136,13.16438082,.00074301,100.4029,146.2315,172.3411,187.7817,0,U,36122,999,79624,-.87394412E-3,-.378E-5,0
O/OREOS (USA 219),2010-062C,2026-07-11T15:20:30.046560,14.93843212,.00137716,71.9695,24.9452,12.0791,348.0707,0,U,37224,999,12029,.11890041E-3,.1201E-4,0
JUGNU,2011-058B,2026-07-11T05:36:35.871264,14.13782829,.00184427,19.9591,162.3323,342.6467,134.7204,0,U,37839,999,76243,.48953406E-4,.361E-5,0
SRMSAT,2011-058D,2026-07-11T07:46:27.887232,14.11580564,.00118573,19.9716,273.3792,108.9537,302.7584,0,U,37841,999,76123,.46525383E-4,.351E-5,0
STRAND-1,2013-009E,2026-07-11T11:50:07.442880,14.37177517,.00092096,98.3931,12.1305,151.3099,208.8597,0,U,39090,999,70055,.66856744E-4,.156E-5,0
ZACUBE-1 (TSHEPISOSAT),2013-066B,2026-07-11T04:51:19.576224,15.01317932,.00437969,97.8013,154.6585,168.0001,192.2277,0,U,39417,999,68433,.11848105E-3,.1491E-4,0
GOMX-1,2013-066Q,2026-07-11T18:24:09.993312,14.69537985,.01286138,97.6478,31.6786,359.2365,0.8625,0,U,39430,999,67352,.1534543E-3,.981E-5,0
